STARLINK-31588          
1 59335U 24057R   26068.36697532 -.00001330  00000+0 -38829-4 0  9998
2 59335  42.9984 188.5548 0000557 270.0598  90.0190 15.27580923109797
AL MUNTHER              
1 63240U 25052AG  26068.64540749  .00017933  00000+0  65015-3 0  9992
2 63240  97.4001 323.9152 0008027 130.7043 229.4895 15.28381521 54798
